start=new Date('2022-02-15T00:00:00.000Z').valueOf();
sats=[{"ELEMENT_SET_NO":"999","ARG_OF_PERICENTER":"62.8667","INCLINATION":"53.0517","MEAN_ELEMENT_THEORY":"SGP4","RA_OF_ASC_NODE":"237.9902","GP_ID":"195964862","TLE_LINE2":"2 45688  53.0517 237.9902 0001693  62.8667 297.2494 15.06394968 95215","DECAY_DATE":null,"REF_FRAME":"TEME","MEAN_MOTION":"15.06394968","APOAPSIS":"548.401","SITE":"AFETR","MEAN_ANOMALY":"297.2494","EPHEMERIS_TYPE":"0","COUNTRY_CODE":"US","TIME_SYSTEM":"UTC","EPOCH":"2022-02-14T19:30:48.339072","NORAD_CAT_ID":"45688","CLASSIFICATION_TYPE":"U","ECCENTRICITY":"0.00016930","RCS_SIZE":"LARGE","OBJECT_ID":"2020-035AH","REV_AT_EPOCH":"9521","LAUNCH_DATE":"2020-06-04","TLE_LINE1":"1 45688U 20035AH  22045.81305948  .00002596  00000-0  19314-3 0  9995","PERIAPSIS":"546.057","MEAN_MOTION_DOT":"0.00002596","FILE":"3300727","OBJECT_NAME":"STARLINK-1408","SEMIMAJOR_AXIS":"6925.364","PERIOD":"95.592","OBJECT_TYPE":"PAYLOAD","CENTER_NAME":"EARTH","MEAN_MOTION_DDOT":"0.0000000000000","BSTAR":"0.00019314000000"},{"MEAN_MOTION":"15.06384856","REF_FRAME":"TEME","APOAPSIS":"548.381","SITE":"AFETR","RA_OF_ASC_NODE":"238.1781","GP_ID":"195965112","TLE_LINE2":"2 45689  53.0547 238.1781 0001618  69.3023 290.8139 15.06384856 95122","DECAY_DATE":null,"ARG_OF_PERICENTER":"69.3023","INCLINATION":"53.0547","MEAN_ELEMENT_THEORY":"SGP4","ELEMENT_SET_NO":"999","CLASSIFICATION_TYPE":"U","NORAD_CAT_ID":"45689","MEAN_ANOMALY":"290.8139","EPHEMERIS_TYPE":"0","COUNTRY_CODE":"US","TIME_SYSTEM":"UTC","EPOCH":"2022-02-14T18:32:26.237760","PERIAPSIS":"546.139","MEAN_MOTION_DOT":"-0.00000427","LAUNCH_DATE":"2020-06-04","REV_AT_EPOCH":"9512","TLE_LINE1":"1 45689U 20035AJ  22045.77252590 -.00000427  00000-0 -97489-5 0  9999","ECCENTRICITY":"0.00016180","RCS_SIZE":"LARGE","OBJECT_ID":"2020-035AJ","BSTAR":"-0.00000974890000","SEMIMAJOR_AXIS":"6925.395","PERIOD":"95.593","OBJECT_TYPE":"PAYLOAD","CENTER_NAME":"EARTH","MEAN_MOTION_DDOT":"0.0000000000000","FILE":"3300727","OBJECT_NAME":"STARLINK-1413"},{"BSTAR":"-0.00000658410000","FILE":"3300727","OBJECT_NAME":"STARLINK-1414","SEMIMAJOR_AXIS":"6927.861","PERIOD":"95.644","OBJECT_TYPE":"PAYLOAD","CENTER_NAME":"EARTH","MEAN_MOTION_DDOT":"0.0000000000000","REV_AT_EPOCH":"9518","LAUNCH_DATE":"2020-06-04","TLE_LINE1":"1 45690U 20035AK  22045.81823423 -.00000375  00000-0 -65841-5 0  9994","PERIAPSIS":"548.601","MEAN_MOTION_DOT":"-0.00000375","ECCENTRICITY":"0.00016240","RCS_SIZE":"LARGE","OBJECT_ID":"2020-035AK","NORAD_CAT_ID":"45690","CLASSIFICATION_TYPE":"U","MEAN_ANOMALY":"284.5766","COUNTRY_CODE":"US","EPHEMERIS_TYPE":"0","TIME_SYSTEM":"UTC","EPOCH":"2022-02-14T19:38:15.437472","RA_OF_ASC_NODE":"237.9899","GP_ID":"195965362","TLE_LINE2":"2 45690  52.9994 237.9899 0001624  75.5402 284.5766 15.05580459 95180","DECAY_DATE":null,"MEAN_MOTION":"15.05580459","REF_FRAME":"TEME","APOAPSIS":"550.852","SITE":"AFETR","ELEMENT_SET_NO":"999","ARG_OF_PERICENTER":"75.5402","INCLINATION":"52.9994","MEAN_ELEMENT_THEORY":"SGP4"},{"EPOCH":"2022-02-14T19:46:44.373216","COUNTRY_CODE":"US","EPHEMERIS_TYPE":"0","TIME_SYSTEM":"UTC","MEAN_ANOMALY":"296.3762","NORAD_CAT_ID":"45691","CLASSIFICATION_TYPE":"U","ELEMENT_SET_NO":"999","MEAN_ELEMENT_THEORY":"SGP4","INCLINATION":"53.0524","ARG_OF_PERICENTER":"63.7374","DECAY_DATE":null,"TLE_LINE2":"2 45691  53.0524 237.9595 0001429  63.7374 296.3762 15.06387532 95225","GP_ID":"195964112","RA_OF_ASC_NODE":"237.9595","SITE":"AFETR","APOAPSIS":"548.241","MEAN_MOTION":"15.06387532","REF_FRAME":"TEME","OBJECT_NAME":"STARLINK-1415","FILE":"3300727","MEAN_MOTION_DDOT":"0.0000000000000","OBJECT_TYPE":"PAYLOAD","CENTER_NAME":"EARTH","SEMIMAJOR_AXIS":"6925.387","PERIOD":"95.593","BSTAR":"-0.00002669400000","OBJECT_ID":"2020-035AL","RCS_SIZE":"LARGE","ECCENTRICITY":"0.00014290","TLE_LINE1":"1 45691U 20035AL  22045.82412469 -.00000679  00000-0 -26694-4 0  9999","REV_AT_EPOCH":"9522","LAUNCH_DATE":"2020-06-04","MEAN_MOTION_DOT":"-0.00000679","PERIAPSIS":"546.262"},{"GP_ID":"195964362","RA_OF_ASC_NODE":"237.9952","TLE_LINE2":"2 45692  53.0530 237.9952 0001531  73.8628 286.2529 15.06391998 95217","DECAY_DATE":null,"REF_FRAME":"TEME","MEAN_MOTION":"15.06391998","APOAPSIS":"548.298","SITE":"AFETR","ELEMENT_SET_NO":"999","ARG_OF_PERICENTER":"73.8628","INCLINATION":"53.0530","MEAN_ELEMENT_THEORY":"SGP4","NORAD_CAT_ID":"45692","CLASSIFICATION_TYPE":"U","MEAN_ANOMALY":"286.2529","EPHEMERIS_TYPE":"0","COUNTRY_CODE":"US","TIME_SYSTEM":"UTC","EPOCH":"2022-02-14T19:36:06.646176","LAUNCH_DATE":"2020-06-04","REV_AT_EPOCH":"9521","TLE_LINE1":"1 45692U 20035AM  22045.81674359 -.00001827  00000-0 -10382-3 0  9999","PERIAPSIS":"546.178","MEAN_MOTION_DOT":"-0.00001827","ECCENTRICITY":"0.00015310","RCS_SIZE":"LARGE","OBJECT_ID":"2020-035AM","BSTAR":"-0.00010382000000","FILE":"3300727","OBJECT_NAME":"STARLINK-1416","SEMIMAJOR_AXIS":"6925.373","PERIOD":"95.593","OBJECT_TYPE":"PAYLOAD","CENTER_NAME":"EARTH","MEAN_MOTION_DDOT":"0.0000000000000"},{"FILE":"3300727","OBJECT_NAME":"STARLINK-1417","PERIOD":"95.592","SEMIMAJOR_AXIS":"6925.360","OBJECT_TYPE":"PAYLOAD","CENTER_NAME":"EARTH","MEAN_MOTION_DDOT":"0.0000000000000","BSTAR":"0.00004209300000","ECCENTRICITY":"0.00016510","RCS_SIZE":"LARGE","OBJECT_ID":"2020-035AN","REV_AT_EPOCH":"9521","LAUNCH_DATE":"2020-06-04","TLE_LINE1":"1 45693U 20035AN  22045.83517105  .00000345  00000-0  42093-4 0  9994","PERIAPSIS":"546.081","MEAN_MOTION_DOT":"0.00000345","MEAN_ANOMALY":"293.0329","COUNTRY_CODE":"US","EPHEMERIS_TYPE":"0","TIME_SYSTEM":"UTC","EPOCH":"2022-02-14T20:02:38.778720","NORAD_CAT_ID":"45693","CLASSIFICATION_TYPE":"U","ELEMENT_SET_NO":"999","ARG_OF_PERICENTER":"67.0834","INCLINATION":"53.0539","MEAN_ELEMENT_THEORY":"SGP4","RA_OF_ASC_NODE":"237.9052","GP_ID":"195965613","TLE_LINE2":"2 45693  53.0539 237.9052 0001651  67.0834 293.0329 15.06396320 95213","DECAY_DATE":null,"REF_FRAME":"TEME","MEAN_MOTION":"15.06396320","APOAPSIS":"548.368","SITE":"AFETR"},{"NORAD_CAT_ID":"45694","CLASSIFICATION_TYPE":"U","MEAN_ANOMALY":"288.8964","COUNTRY_CODE":"US","TIME_SYSTEM":"UTC","EPHEMERIS_TYPE":"0","EPOCH":"2022-02-14T18:37:44.098176","GP_ID":"195965863","RA_OF_ASC_NODE":"238.1580","TLE_LINE2":"2 45694  53.0521 238.1580 0001862  71.2227 288.8964 15.06382728 95204","DECAY_DATE":null,"MEAN_MOTION":"15.06382728","REF_FRAME":"TEME","APOAPSIS":"548.556","SITE":"AFETR","ELEMENT_SET_NO":"999","ARG_OF_PERICENTER":"71.2227","INCLINATION":"53.0521","MEAN_ELEMENT_THEORY":"SGP4","BSTAR":"0.00000806670000","FILE":"3300727","OBJECT_NAME":"STARLINK-1419","PERIOD":"95.593","SEMIMAJOR_AXIS":"6925.401","CENTER_NAME":"EARTH","OBJECT_TYPE":"PAYLOAD","MEAN_MOTION_DDOT":"0.0000000000000","REV_AT_EPOCH":"9520","LAUNCH_DATE":"2020-06-04","TLE_LINE1":"1 45694U 20035AP  22045.77620484 -.00000162  00000-0  80667-5 0  9991","PERIAPSIS":"545.977","MEAN_MOTION_DOT":"-0.00000162","ECCENTRICITY":"0.00018620","RCS_SIZE":"LARGE","OBJECT_ID":"2020-035AP"},{"PERIAPSIS":"546.081","MEAN_MOTION_DOT":"-0.00000016","REV_AT_EPOCH":"9549","LAUNCH_DATE":"2020-06-04","TLE_LINE1":"1 45695U 20035AQ  22045.77065803 -.00000016  00000-0  17818-4 0  9995","ECCENTRICITY":"0.00016320","OBJECT_ID":"2020-035AQ","RCS_SIZE":"LARGE","BSTAR":"0.00001781800000","OBJECT_TYPE":"PAYLOAD","CENTER_NAME":"EARTH","PERIOD":"95.592","SEMIMAJOR_AXIS":"6925.346","MEAN_MOTION_DDOT":"0.0000000000000","FILE":"3300727","OBJECT_NAME":"STARLINK-1420","REF_FRAME":"TEME","MEAN_MOTION":"15.06400683","SITE":"AFETR","APOAPSIS":"548.342","TLE_LINE2":"2 45695  53.0536 218.1810 0001632  73.5117 286.6051 15.06400683 95498","RA_OF_ASC_NODE":"218.1810","GP_ID":"195964613","DECAY_DATE":null,"ARG_OF_PERICENTER":"73.5117","MEAN_ELEMENT_THEORY":"SGP4","INCLINATION":"53.0536","ELEMENT_SET_NO":"999","CLASSIFICATION_TYPE":"U","NORAD_CAT_ID":"45695","MEAN_ANOMALY":"286.6051","EPOCH":"2022-02-14T18:29:44.853792","EPHEMERIS_TYPE":"0","COUNTRY_CODE":"US","TIME_SYSTEM":"UTC"},{"BSTAR":"0.00013638000000","MEAN_MOTION_DDOT":"0.0000000000000","SEMIMAJOR_AXIS":"6925.380","PERIOD":"95.593","OBJECT_TYPE":"PAYLOAD","CENTER_NAME":"EARTH","OBJECT_NAME":"STARLINK-1422","FILE":"3300727","MEAN_MOTION_DOT":"0.00001750","PERIAPSIS":"545.773","TLE_LINE1":"1 45696U 20035AR  22045.77988175  .00001750  00000-0  13638-3 0  9992","LAUNCH_DATE":"2020-06-04","REV_AT_EPOCH":"9520","RCS_SIZE":"LARGE","OBJECT_ID":"2020-035AR","ECCENTRICITY":"0.00021260","CLASSIFICATION_TYPE":"U","NORAD_CAT_ID":"45696","COUNTRY_CODE":"US","TIME_SYSTEM":"UTC","EPHEMERIS_TYPE":"0","EPOCH":"2022-02-14T18:43:01.783200","MEAN_ANOMALY":"308.0777","APOAPSIS":"548.718","SITE":"AFETR","REF_FRAME":"TEME","MEAN_MOTION":"15.06389630","DECAY_DATE":null,"GP_ID":"195964863","RA_OF_ASC_NODE":"238.1441","TLE_LINE2":"2 45696  53.0533 238.1441 0002126  52.0404 308.0777 15.06389630 95209","INCLINATION":"53.0533","MEAN_ELEMENT_THEORY":"SGP4","ARG_OF_PERICENTER":"52.0404","ELEMENT_SET_NO":"999"},{"MEAN_ANOMALY":"271.3042","EPOCH":"2022-02-14T18:08:31.421472","TIME_SYSTEM":"UTC","COUNTRY_CODE":"US","EPHEMERIS_TYPE":"0","CLASSIFICATION_TYPE":"U","NORAD_CAT_ID":"45697","ARG_OF_PERICENTER":"88.8134","MEAN_ELEMENT_THEORY":"SGP4","INCLINATION":"53.0544","ELEMENT_SET_NO":"999","REF_FRAME":"TEME","MEAN_MOTION":"15.06398204","SITE":"AFETR","APOAPSIS":"548.347","TLE_LINE2":"2 45697  53.0544 218.2581 0001629  88.8134 271.3042 15.06398204 95495","RA_OF_ASC_NODE":"218.2581","GP_ID":"195965113","DECAY_DATE":null,"OBJECT_TYPE":"PAYLOAD","CENTER_NAME":"EARTH","SEMIMAJOR_AXIS":"6925.354","PERIOD":"95.592","MEAN_MOTION_DDOT":"0.0000000000000","FILE":"3300727","OBJECT_NAME":"STARLINK-1351","BSTAR":"-0.00005471500000","ECCENTRICITY":"0.00016290","OBJECT_ID":"2020-035AS","RCS_SIZE":"LARGE","PERIAPSIS":"546.091","MEAN_MOTION_DOT":"-0.00001096","REV_AT_EPOCH":"9549","LAUNCH_DATE":"2020-06-04","TLE_LINE1":"1 45697U 20035AS  22045.75591923 -.00001096  00000-0 -54715-4 0  9999"}];
